[{"CCSDS_OMM_VERS":"2.0","COMMENT":"GENERATED VIA SPACE-TRACK.ORG API","CREATION_DATE":"2023-02-19T20:48:11","ORIGINATOR":"18 SPCS","OBJECT_NAME":"OBJECT K","OBJECT_ID":"2023-001K","CENTER_NAME":"EARTH","REF_FRAME":"TEME","TIME_SYSTEM":"UTC","MEAN_ELEMENT_THEORY":"SGP4","EPOCH":"2023-02-19T10:20:33.907200","MEAN_MOTION":"15.13382434","ECCENTRICITY":"0.00120710","INCLINATION":"97.4957","RA_OF_ASC_NODE":"111.7497","ARG_OF_PERICENTER":"66.7397","MEAN_ANOMALY":"293.5104","EPHEMERIS_TYPE":"0","CLASSIFICATION_TYPE":"U","NORAD_CAT_ID":"55018","ELEMENT_SET_NO":"999","REV_AT_EPOCH":"723","BSTAR":"0.00068975000000","MEAN_MOTION_DOT":"0.00012275","MEAN_MOTION_DDOT":"0.0000000000000","SEMIMAJOR_AXIS":"6904.031","PERIOD":"95.151","APOAPSIS":"534.230","PERIAPSIS":"517.562","OBJECT_TYPE":"UNKNOWN","RCS_SIZE":"MEDIUM","COUNTRY_CODE":"TBD","LAUNCH_DATE":"2023-01-03","SITE":"AFETR","DECAY_DATE":null,"FILE":"3811610","GP_ID":"226049145","TLE_LINE0":"0 OBJECT K","TLE_LINE1":"1 55018U 23001K   23050.43094800  .00012275  00000-0  68975-3 0  9998","TLE_LINE2":"2 55018  97.4957 111.7497 0012071  66.7397 293.5104 15.13382434  7231"},{"CCSDS_OMM_VERS":"2.0","COMMENT":"GENERATED VIA SPACE-TRACK.ORG API","CREATION_DATE":"2023-02-19T17:26:16","ORIGINATOR":"18 SPCS","OBJECT_NAME":"OBJECT K","OBJECT_ID":"2023-001K","CENTER_NAME":"EARTH","REF_FRAME":"TEME","TIME_SYSTEM":"UTC","MEAN_ELEMENT_THEORY":"SGP4","EPOCH":"2023-02-19T15:06:11.957184","MEAN_MOTION":"15.13385534","ECCENTRICITY":"0.00120890","INCLINATION":"97.4955","RA_OF_ASC_NODE":"111.9447","ARG_OF_PERICENTER":"66.2418","MEAN_ANOMALY":"294.0080","EPHEMERIS_TYPE":"0","CLASSIFICATION_TYPE":"U","NORAD_CAT_ID":"55018","ELEMENT_SET_NO":"999","REV_AT_EPOCH":"726","BSTAR":"0.00061083000000","MEAN_MOTION_DOT":"0.00010862","MEAN_MOTION_DDOT":"0.0000000000000","SEMIMAJOR_AXIS":"6904.021","PERIOD":"95.151","APOAPSIS":"534.233","PERIAPSIS":"517.540","OBJECT_TYPE":"UNKNOWN","RCS_SIZE":"MEDIUM","COUNTRY_CODE":"TBD","LAUNCH_DATE":"2023-01-03","SITE":"AFETR","DECAY_DATE":null,"FILE":"3811053","GP_ID":"226011798","TLE_LINE0":"0 OBJECT K","TLE_LINE1":"1 55018U 23001K   23050.62930506  .00010862  00000-0  61083-3 0  9994","TLE_LINE2":"2 55018  97.4955 111.9447 0012089  66.2418 294.0080 15.13385534  7260"},{"CCSDS_OMM_VERS":"2.0","COMMENT":"GENERATED VIA SPACE-TRACK.ORG API","CREATION_DATE":"2023-02-20T18:24:59","ORIGINATOR":"18 SPCS","OBJECT_NAME":"OBJECT K","OBJECT_ID":"2023-001K","CENTER_NAME":"EARTH","REF_FRAME":"TEME","TIME_SYSTEM":"UTC","MEAN_ELEMENT_THEORY":"SGP4","EPOCH":"2023-02-20T10:08:43.507392","MEAN_MOTION":"15.13404874","ECCENTRICITY":"0.00120920","INCLINATION":"97.4952","RA_OF_ASC_NODE":"112.7248","ARG_OF_PERICENTER":"63.8128","MEAN_ANOMALY":"296.4345","EPHEMERIS_TYPE":"0","CLASSIFICATION_TYPE":"U","NORAD_CAT_ID":"55018","ELEMENT_SET_NO":"999","REV_AT_EPOCH":"738","BSTAR":"0.00063851000000","MEAN_MOTION_DOT":"0.00011364","MEAN_MOTION_DDOT":"0.0000000000000","SEMIMAJOR_AXIS":"6903.962","PERIOD":"95.150","APOAPSIS":"534.176","PERIAPSIS":"517.479","OBJECT_TYPE":"UNKNOWN","RCS_SIZE":"MEDIUM","COUNTRY_CODE":"TBD","LAUNCH_DATE":"2023-01-03","SITE":"AFETR","DECAY_DATE":null,"FILE":"3815761","GP_ID":"226159452","TLE_LINE0":"0 OBJECT K","TLE_LINE1":"1 55018U 23001K   23051.42272578  .00011364  00000-0  63851-3 0  9994","TLE_LINE2":"2 55018  97.4952 112.7248 0012092  63.8128 296.4345 15.13404874  7382"},{"CCSDS_OMM_VERS":"2.0","COMMENT":"GENERATED VIA SPACE-TRACK.ORG API","CREATION_DATE":"2023-02-21T02:06:14","ORIGINATOR":"18 SPCS","OBJECT_NAME":"OBJECT K","OBJECT_ID":"2023-001K","CENTER_NAME":"EARTH","REF_FRAME":"TEME","TIME_SYSTEM":"UTC","MEAN_ELEMENT_THEORY":"SGP4","EPOCH":"2023-02-20T21:15:11.540736","MEAN_MOTION":"15.13415758","ECCENTRICITY":"0.00120720","INCLINATION":"97.4949","RA_OF_ASC_NODE":"113.1799","ARG_OF_PERICENTER":"62.4969","MEAN_ANOMALY":"297.7488","EPHEMERIS_TYPE":"0","CLASSIFICATION_TYPE":"U","NORAD_CAT_ID":"55018","ELEMENT_SET_NO":"999","REV_AT_EPOCH":"745","BSTAR":"0.00063552000000","MEAN_MOTION_DOT":"0.00011313","MEAN_MOTION_DDOT":"0.0000000000000","SEMIMAJOR_AXIS":"6903.929","PERIOD":"95.149","APOAPSIS":"534.129","PERIAPSIS":"517.460","OBJECT_TYPE":"UNKNOWN","RCS_SIZE":"MEDIUM","COUNTRY_CODE":"TBD","LAUNCH_DATE":"2023-01-03","SITE":"AFETR","DECAY_DATE":null,"FILE":"3817009","GP_ID":"226186797","TLE_LINE0":"0 OBJECT K","TLE_LINE1":"1 55018U 23001K   23051.88555024  .00011313  00000-0  63552-3 0  9996","TLE_LINE2":"2 55018  97.4949 113.1799 0012072  62.4969 297.7488 15.13415758  7453"},{"CCSDS_OMM_VERS":"2.0","COMMENT":"GENERATED VIA SPACE-TRACK.ORG API","CREATION_DATE":"2023-02-21T18:44:19","ORIGINATOR":"18 SPCS","OBJECT_NAME":"OBJECT K","OBJECT_ID":"2023-001K","CENTER_NAME":"EARTH","REF_FRAME":"TEME","TIME_SYSTEM":"UTC","MEAN_ELEMENT_THEORY":"SGP4","EPOCH":"2023-02-21T14:42:29.197152","MEAN_MOTION":"15.13435890","ECCENTRICITY":"0.00119810","INCLINATION":"97.4943","RA_OF_ASC_NODE":"113.8950","ARG_OF_PERICENTER":"60.1376","MEAN_ANOMALY":"300.1045","EPHEMERIS_TYPE":"0","CLASSIFICATION_TYPE":"U","NORAD_CAT_ID":"55018","ELEMENT_SET_NO":"999","REV_AT_EPOCH":"756","BSTAR":"0.00072085000000","MEAN_MOTION_DOT":"0.00012851","MEAN_MOTION_DDOT":"0.0000000000000","SEMIMAJOR_AXIS":"6903.868","PERIOD":"95.148","APOAPSIS":"534.005","PERIAPSIS":"517.462","OBJECT_TYPE":"UNKNOWN","RCS_SIZE":"MEDIUM","COUNTRY_CODE":"TBD","LAUNCH_DATE":"2023-01-03","SITE":"AFETR","DECAY_DATE":null,"FILE":"3819803","GP_ID":"226277158","TLE_LINE0":"0 OBJECT K","TLE_LINE1":"1 55018U 23001K   23052.61283793  .00012851  00000-0  72085-3 0  9998","TLE_LINE2":"2 55018  97.4943 113.8950 0011981  60.1376 300.1045 15.13435890  7567"},{"CCSDS_OMM_VERS":"2.0","COMMENT":"GENERATED VIA SPACE-TRACK.ORG API","CREATION_DATE":"2023-02-22T02:57:45","ORIGINATOR":"18 SPCS","OBJECT_NAME":"OBJECT K","OBJECT_ID":"2023-001K","CENTER_NAME":"EARTH","REF_FRAME":"TEME","TIME_SYSTEM":"UTC","MEAN_ELEMENT_THEORY":"SGP4","EPOCH":"2023-02-21T21:03:19.038816","MEAN_MOTION":"15.13443788","ECCENTRICITY":"0.00119590","INCLINATION":"97.4941","RA_OF_ASC_NODE":"114.1551","ARG_OF_PERICENTER":"59.3424","MEAN_ANOMALY":"300.8984","EPHEMERIS_TYPE":"0","CLASSIFICATION_TYPE":"U","NORAD_CAT_ID":"55018","ELEMENT_SET_NO":"999","REV_AT_EPOCH":"760","BSTAR":"0.00075776000000","MEAN_MOTION_DOT":"0.00013516","MEAN_MOTION_DDOT":"0.0000000000000","SEMIMAJOR_AXIS":"6903.844","PERIOD":"95.147","APOAPSIS":"533.965","PERIAPSIS":"517.453","OBJECT_TYPE":"UNKNOWN","RCS_SIZE":"MEDIUM","COUNTRY_CODE":"TBD","LAUNCH_DATE":"2023-01-03","SITE":"AFETR","DECAY_DATE":null,"FILE":"3821329","GP_ID":"226334830","TLE_LINE0":"0 OBJECT K","TLE_LINE1":"1 55018U 23001K   23052.87730369  .00013516  00000-0  75776-3 0  9991","TLE_LINE2":"2 55018  97.4941 114.1551 0011959  59.3424 300.8984 15.13443788  7604"},{"CCSDS_OMM_VERS":"2.0","COMMENT":"GENERATED VIA SPACE-TRACK.ORG API","CREATION_DATE":"2023-02-22T20:37:33","ORIGINATOR":"18 SPCS","OBJECT_NAME":"OBJECT K","OBJECT_ID":"2023-001K","CENTER_NAME":"EARTH","REF_FRAME":"TEME","TIME_SYSTEM":"UTC","MEAN_ELEMENT_THEORY":"SGP4","EPOCH":"2023-02-22T01:48:56.356128","MEAN_MOTION":"15.13449234","ECCENTRICITY":"0.00118810","INCLINATION":"97.4941","RA_OF_ASC_NODE":"114.3501","ARG_OF_PERICENTER":"58.5437","MEAN_ANOMALY":"301.6954","EPHEMERIS_TYPE":"0","CLASSIFICATION_TYPE":"U","NORAD_CAT_ID":"55018","ELEMENT_SET_NO":"999","REV_AT_EPOCH":"763","BSTAR":"0.00075230000000","MEAN_MOTION_DOT":"0.00013420","MEAN_MOTION_DDOT":"0.0000000000000","SEMIMAJOR_AXIS":"6903.828","PERIOD":"95.147","APOAPSIS":"533.895","PERIAPSIS":"517.490","OBJECT_TYPE":"UNKNOWN","RCS_SIZE":"MEDIUM","COUNTRY_CODE":"TBD","LAUNCH_DATE":"2023-01-03","SITE":"AFETR","DECAY_DATE":null,"FILE":"3824148","GP_ID":"226424463","TLE_LINE0":"0 OBJECT K","TLE_LINE1":"1 55018U 23001K   23053.07565227  .00013420  00000-0  75230-3 0  9992","TLE_LINE2":"2 55018  97.4941 114.3501 0011881  58.5437 301.6954 15.13449234  7631"},{"CCSDS_OMM_VERS":"2.0","COMMENT":"GENERATED VIA SPACE-TRACK.ORG API","CREATION_DATE":"2023-02-22T07:16:15","ORIGINATOR":"18 SPCS","OBJECT_NAME":"OBJECT K","OBJECT_ID":"2023-001K","CENTER_NAME":"EARTH","REF_FRAME":"TEME","TIME_SYSTEM":"UTC","MEAN_ELEMENT_THEORY":"SGP4","EPOCH":"2023-02-22T01:48:56.356128","MEAN_MOTION":"15.13449234","ECCENTRICITY":"0.00118810","INCLINATION":"97.4941","RA_OF_ASC_NODE":"114.3501","ARG_OF_PERICENTER":"58.5437","MEAN_ANOMALY":"301.6954","EPHEMERIS_TYPE":"0","CLASSIFICATION_TYPE":"U","NORAD_CAT_ID":"55018","ELEMENT_SET_NO":"999","REV_AT_EPOCH":"763","BSTAR":"0.00075230000000","MEAN_MOTION_DOT":"0.00013420","MEAN_MOTION_DDOT":"0.0000000000000","SEMIMAJOR_AXIS":"6903.828","PERIOD":"95.147","APOAPSIS":"533.895","PERIAPSIS":"517.490","OBJECT_TYPE":"UNKNOWN","RCS_SIZE":"MEDIUM","COUNTRY_CODE":"TBD","LAUNCH_DATE":"2023-01-03","SITE":"AFETR","DECAY_DATE":null,"FILE":"3822266","GP_ID":"226357450","TLE_LINE0":"0 OBJECT K","TLE_LINE1":"1 55018U 23001K   23053.07565227  .00013420  00000-0  75230-3 0  9992","TLE_LINE2":"2 55018  97.4941 114.3501 0011881  58.5437 301.6954 15.13449234  7631"}]